{
"type": "FeatureCollection",
"crs": { "type": "name", "properties": { "name": "urn:ogc:def:crs:OGC:1.3:CRS84" } },
                                                                                
"features": [
{ "type": "Feature", "properties": { "OBJECTID_1": 1, "OBJECTID": 206, "BANDWIDTH": 220, "FROM_": "Fungurume", "Source": null, "TO_": "Kasumbalesa", "regional": "SAPP", "project": "DRC-Zambia Interconnector", "AICDstatus": "Planned", "COUNTRY": "ZAR", "AICD": 1.000000, "CNTRY_NAME": "CONGO, DEM REP", "PNUMBER": "P105654", "VOLTAGE_KV": 220, "FROM_NM": "Fungurume", "TO_NM": "Kasumbalesa", "STATUS": "Planned", "SOURCES": null, "PROJECT_NM": "DRC-Zambia Interconnector", "Shape_Leng": 252629.542043, "Shape_Le_1": 67.116224 }, "geometry": { "type": "LineString", "coordinates": [ [ 27.81422339821815, -12.234114273997609 ], [ 27.813936850015548, -12.233592514814333 ] ] } },
{ "type": "Feature", "properties": { "OBJECTID_1": 2, "OBJECTID": 207, "BANDWIDTH": 330, "FROM_": "MBEYA", "Source": null, "TO_": "PENSULO", "regional": "SAPP \/ EAPP", "project": "Zambia-Tanzania-Kenya Interconnector", "AICDstatus": "Under Study", "COUNTRY": "ZMB", "AICD": 1.000000, "CNTRY_NAME": "ZAMBIA", "PNUMBER": null, "VOLTAGE_KV": 330, "FROM_NM": "MBEYA", "TO_NM": "PENSULO", "STATUS": "Under Study", "SOURCES": null, "PROJECT_NM": "Zambia-Tanzania-Kenya Interconnector", "Shape_Leng": 529370.587379, "Shape_Le_1": 528182.842040 }, "geometry": { "type": "LineString", "coordinates": [ [ 32.661107036969057, -9.274782008987966 ], [ 31.179999999692143, -10.200000000280106 ], [ 30.56462909822789, -12.895284525603381 ], [ 30.433333300018173, -13.033333300094585 ] ] } },
{ "type": "Feature", "properties": { "OBJECTID_1": 3, "OBJECTID": 208, "BANDWIDTH": 330, "FROM_": "Hwange", "Source": null, "TO_": "Livingstone", "regional": "SAPP", "project": "Hwange-Livingstone Interconnector", "AICDstatus": "Planned", "COUNTRY": "ZMB", "AICD": 1.000000, "CNTRY_NAME": "ZAMBIA", "PNUMBER": null, "VOLTAGE_KV": 330, "FROM_NM": "Hwange", "TO_NM": "Livingstone", "STATUS": "Planned", "SOURCES": null, "PROJECT_NM": "Hwange-Livingstone Interconnector", "Shape_Leng": 22794.606814, "Shape_Le_1": 22794.606814 }, "geometry": { "type": "LineString", "coordinates": [ [ 25.866666793754227, -17.850000381694827 ], [ 26.020755599566812, -17.979101723504954 ] ] } },
{ "type": "Feature", "properties": { "OBJECTID_1": 4, "OBJECTID": 209, "BANDWIDTH": 330, "FROM_": "Hwange", "Source": null, "TO_": "Livingstone", "regional": "SAPP", "project": "Hwange-Livingstone Interconnector", "AICDstatus": "Planned", "COUNTRY": "ZWE", "AICD": 2.000000, "CNTRY_NAME": "ZIMBABWE", "PNUMBER": null, "VOLTAGE_KV": 330, "FROM_NM": "Hwange", "TO_NM": "Livingstone", "STATUS": "Planned", "SOURCES": null, "PROJECT_NM": "Hwange-Livingstone Interconnector", "Shape_Leng": 68474.126013, "Shape_Le_1": 0.148314 }, "geometry": { "type": "LineString", "coordinates": [ [ 26.020755744195579, -17.979101843857308 ], [ 26.02075674581711, -17.979102684604499 ] ] } },
{ "type": "Feature", "properties": { "OBJECTID_1": 5, "OBJECTID": 228, "BANDWIDTH": 330, "FROM_": "Hwange", "Source": null, "TO_": "Livingstone", "regional": "SAPP", "project": "Hwange-Livingstone Interconnector", "AICDstatus": "Planned", "COUNTRY": "ZMB", "AICD": 1.000000, "CNTRY_NAME": "ZAMBIA", "PNUMBER": null, "VOLTAGE_KV": 330, "FROM_NM": "Hwange", "TO_NM": "Livingstone", "STATUS": "Planned", "SOURCES": null, "PROJECT_NM": "Hwange-Livingstone Interconnector", "Shape_Leng": 0.021336, "Shape_Le_1": 0.021336 }, "geometry": { "type": "LineString", "coordinates": [ [ 26.020755599566812, -17.979101723504954 ], [ 26.020755744195579, -17.979101843857308 ] ] } },
{ "type": "Feature", "properties": { "OBJECTID_1": 6, "OBJECTID": 229, "BANDWIDTH": 330, "FROM_": "Hwange", "Source": null, "TO_": "Livingstone", "regional": "SAPP", "project": "Hwange-Livingstone Interconnector", "AICDstatus": "Planned", "COUNTRY": "ZWE", "AICD": 2.000000, "CNTRY_NAME": "ZIMBABWE", "PNUMBER": null, "VOLTAGE_KV": 330, "FROM_NM": "Hwange", "TO_NM": "Livingstone", "STATUS": "Planned", "SOURCES": null, "PROJECT_NM": "Hwange-Livingstone Interconnector", "Shape_Leng": 0.021336, "Shape_Le_1": 0.021336 }, "geometry": { "type": "LineString", "coordinates": [ [ 26.020755599566812, -17.979101723504954 ], [ 26.020755744195579, -17.979101843857308 ] ] } },
{ "type": "Feature", "properties": { "OBJECTID_1": 7, "OBJECTID": 232, "BANDWIDTH": 220, "FROM_": "KATIMAMULILO", "Source": null, "TO_": "LIVINGSTONE", "regional": "SAPP", "project": "Zambia-Namibia Interconnector", "AICDstatus": "Planned", "COUNTRY": "ZMB", "AICD": 0.000000, "CNTRY_NAME": "ZAMBIA", "PNUMBER": null, "VOLTAGE_KV": 220, "FROM_NM": "KATIMAMULILO", "TO_NM": "LIVINGSTONE", "STATUS": "Planned", "SOURCES": null, "PROJECT_NM": "Zambia-Namibia Interconnector", "Shape_Leng": 198763.854696, "Shape_Le_1": 195026.603873 }, "geometry": { "type": "LineString", "coordinates": [ [ 24.298212571984198, -17.471143961121641 ], [ 24.504313683626986, -17.480958299788007 ], [ 24.798743842859956, -17.441700945360008 ], [ 25.302546560608207, -17.572558793809339 ], [ 25.436675855429783, -17.742673997687486 ], [ 25.866666793754227, -17.850000381694827 ], [ 25.845341013488074, -17.903319396882413 ] ] } },
{ "type": "Feature", "properties": { "OBJECTID_1": 8, "OBJECTID": 248, "BANDWIDTH": 220, "FROM_": "LUANO SS", "Source": "IBRD archive IBRD #29233, Dec 1997; Ministry of Mines and Mineral Development; ZESCO", "TO_": "MICHELO SS", "regional": "EAPP", "project": null, "AICDstatus": "Planned", "COUNTRY": "ZMB", "AICD": 1.000000, "CNTRY_NAME": "ZAMBIA", "PNUMBER": null, "VOLTAGE_KV": 220, "FROM_NM": "LUANO SS", "TO_NM": "MICHELO SS", "STATUS": "Planned", "SOURCES": "IBRD archive IBRD #29233, Dec 1997; Ministry of Mines and Mineral Development; ZESCO", "PROJECT_NM": null, "Shape_Leng": 46186.498921, "Shape_Le_1": 46186.498921 }, "geometry": { "type": "LineString", "coordinates": [ [ 27.81422339821815, -12.234114273997609 ], [ 27.821633609980008, -12.250047618106041 ], [ 27.896741008876806, -12.388558087256817 ], [ 27.960925618859164, -12.589591248633925 ], [ 27.980193043500744, -12.60196846251737 ] ] } }
]
}