{
"type": "FeatureCollection",
"name": "Geothermal_potentialpoints",
"crs": { "type": "name", "properties": { "name": "urn:ogc:def:crs:OGC:1.3:CRS84" } },
"features": [
{ "type": "Feature", "properties": { "OBJECTID": 61548, "Data_Numbe": "Zaire", "Codes": "<null>", "Site_Name": "Kinsenda KIN144", "Latitude": -12.3745, "Longitude": 27.7396, "Heat_Prod_": "<null>", "Heat_Flow": 72.0, "Wh/m2/year": 631, "GWh/y 1ha": 6.31, "Elec GWh/y": 3.786, "Capacit kW": 473.25 }, "geometry": { "type": "Point", "coordinates": [ 27.771614491449608, -12.329679711970583 ] } },
{ "type": "Feature", "properties": { "OBJECTID": 61549, "Data_Numbe": "Zaire", "Codes": "<null>", "Site_Name": "Kinsenda KIN80B", "Latitude": -12.3745, "Longitude": 27.7396, "Heat_Prod_": "<null>", "Heat_Flow": 71.0, "Wh/m2/year": 622, "GWh/y 1ha": 6.22, "Elec GWh/y": 3.732, "Capacit kW": 466.5 }, "geometry": { "type": "Point", "coordinates": [ 27.637153627361485, -12.473744923493568 ] } },
{ "type": "Feature", "properties": { "OBJECTID": 61550, "Data_Numbe": "Zaire", "Codes": "<null>", "Site_Name": "Kipushi MW2", "Latitude": -11.9109, "Longitude": 27.0144, "Heat_Prod_": "<null>", "Heat_Flow": 69.0, "Wh/m2/year": 604, "GWh/y 1ha": 6.04, "Elec GWh/y": 3.624, "Capacit kW": 453.0 }, "geometry": { "type": "Point", "coordinates": [ 27.0144, -11.9109 ] } },
{ "type": "Feature", "properties": { "OBJECTID": 61552, "Data_Numbe": "Zaire", "Codes": "<null>", "Site_Name": "Kinsenda KIN122", "Latitude": -12.3745, "Longitude": 27.7396, "Heat_Prod_": "<null>", "Heat_Flow": 65.0, "Wh/m2/year": 569, "GWh/y 1ha": 5.69, "Elec GWh/y": 3.414, "Capacit kW": 426.75 }, "geometry": { "type": "Point", "coordinates": [ 27.862855792080826, -12.422521737174284 ] } },
{ "type": "Feature", "properties": { "OBJECTID": 61553, "Data_Numbe": "Zaire", "Codes": "<null>", "Site_Name": "Kinsenda KIN149", "Latitude": -12.3745, "Longitude": 27.7396, "Heat_Prod_": "<null>", "Heat_Flow": 58.0, "Wh/m2/year": 508, "GWh/y 1ha": 5.08, "Elec GWh/y": 3.048, "Capacit kW": 381.0 }, "geometry": { "type": "Point", "coordinates": [ 27.784420288029427, -12.512162313233031 ] } },
{ "type": "Feature", "properties": { "OBJECTID": 61558, "Data_Numbe": "ZAM013", "Codes": "<null>", "Site_Name": "Luangwa 1", "Latitude": -12.4167, "Longitude": 31.6333, "Heat_Prod_": "<null>", "Heat_Flow": 77.0, "Wh/m2/year": 675, "GWh/y 1ha": 6.75, "Elec GWh/y": 4.05, "Capacit kW": 506.25 }, "geometry": { "type": "Point", "coordinates": [ 31.658911593159718, -12.48072898289904 ] } },
{ "type": "Feature", "properties": { "OBJECTID": 61559, "Data_Numbe": "ZAM014", "Codes": "<null>", "Site_Name": "Luangwa 2", "Latitude": -13.3, "Longitude": 31.3667, "Heat_Prod_": "<null>", "Heat_Flow": 73.0, "Wh/m2/year": 639, "GWh/y 1ha": 6.39, "Elec GWh/y": 3.834, "Capacit kW": 479.25 }, "geometry": { "type": "Point", "coordinates": [ 31.3667, -13.3 ] } },
{ "type": "Feature", "properties": { "OBJECTID": 61560, "Data_Numbe": "Zambia", "Codes": "<null>", "Site_Name": "Luanshya Mine DH 3465", "Latitude": -13.0833, "Longitude": 28.3167, "Heat_Prod_": "<null>", "Heat_Flow": 81.0, "Wh/m2/year": 710, "GWh/y 1ha": 7.1, "Elec GWh/y": 4.26, "Capacit kW": 532.5 }, "geometry": { "type": "Point", "coordinates": [ 28.33058128340198, -12.940035150763205 ] } },
{ "type": "Feature", "properties": { "OBJECTID": 61561, "Data_Numbe": "Zambia", "Codes": "<null>", "Site_Name": "Luanshya Mine 28 Shaft", "Latitude": -13.0833, "Longitude": 28.3167, "Heat_Prod_": "<null>", "Heat_Flow": 76.0, "Wh/m2/year": 666, "GWh/y 1ha": 6.66, "Elec GWh/y": 3.996, "Capacit kW": 499.5 }, "geometry": { "type": "Point", "coordinates": [ 28.424848953928041, -13.032251892930784 ] } },
{ "type": "Feature", "properties": { "OBJECTID": 61562, "Data_Numbe": "Zambia", "Codes": "<null>", "Site_Name": "Luanshya Mine BX 168", "Latitude": -13.0833, "Longitude": 28.3167, "Heat_Prod_": "<null>", "Heat_Flow": 76.0, "Wh/m2/year": 666, "GWh/y 1ha": 6.66, "Elec GWh/y": 3.996, "Capacit kW": 499.5 }, "geometry": { "type": "Point", "coordinates": [ 28.329130626758175, -13.165462190946652 ] } },
{ "type": "Feature", "properties": { "OBJECTID": 61563, "Data_Numbe": "Zambia", "Codes": "<null>", "Site_Name": "Ichimpe PE 2", "Latitude": -12.7333, "Longitude": 28.1167, "Heat_Prod_": "<null>", "Heat_Flow": 74.0, "Wh/m2/year": 648, "GWh/y 1ha": 6.48, "Elec GWh/y": 3.888, "Capacit kW": 486.0 }, "geometry": { "type": "Point", "coordinates": [ 28.1167, -12.7333 ] } },
{ "type": "Feature", "properties": { "OBJECTID": 61564, "Data_Numbe": "Zambia", "Codes": "<null>", "Site_Name": "Chalalobuka CH 70-7", "Latitude": -15.2167, "Longitude": 28.55, "Heat_Prod_": "2.3", "Heat_Flow": 72.0, "Wh/m2/year": 631, "GWh/y 1ha": 6.31, "Elec GWh/y": 3.786, "Capacit kW": 473.25 }, "geometry": { "type": "Point", "coordinates": [ 28.521186957695473, -15.26152028802932 ] } },
{ "type": "Feature", "properties": { "OBJECTID": 61565, "Data_Numbe": "Zambia", "Codes": "<null>", "Site_Name": "Lubombo LUB1", "Latitude": -15.8167, "Longitude": 27.9167, "Heat_Prod_": "2.5", "Heat_Flow": 71.0, "Wh/m2/year": 622, "GWh/y 1ha": 6.22, "Elec GWh/y": 3.732, "Capacit kW": 466.5 }, "geometry": { "type": "Point", "coordinates": [ 27.996736228623924, -15.864721737174296 ] } },
{ "type": "Feature", "properties": { "OBJECTID": 61566, "Data_Numbe": "Zambia", "Codes": "<null>", "Site_Name": "Malundwe MMB 553", "Latitude": -12.2333, "Longitude": 25.8167, "Heat_Prod_": "2.5", "Heat_Flow": 69.0, "Wh/m2/year": 604, "GWh/y 1ha": 6.04, "Elec GWh/y": 3.624, "Capacit kW": 453.0 }, "geometry": { "type": "Point", "coordinates": [ 25.830306158866087, -12.217292754275153 ] } },
{ "type": "Feature", "properties": { "OBJECTID": 61567, "Data_Numbe": "Zambia", "Codes": "<null>", "Site_Name": "Chalalobuka CH 59-12", "Latitude": -15.2167, "Longitude": 28.55, "Heat_Prod_": "2.3", "Heat_Flow": 68.0, "Wh/m2/year": 596, "GWh/y 1ha": 5.96, "Elec GWh/y": 3.576, "Capacit kW": 447.0 }, "geometry": { "type": "Point", "coordinates": [ 28.508381161115651, -15.187886957695349 ] } },
{ "type": "Feature", "properties": { "OBJECTID": 61568, "Data_Numbe": "Zambia", "Codes": "<null>", "Site_Name": "Chimiwungo MMC 705", "Latitude": -12.2833, "Longitude": 25.8833, "Heat_Prod_": "2.5", "Heat_Flow": 67.0, "Wh/m2/year": 587, "GWh/y 1ha": 5.87, "Elec GWh/y": 3.522, "Capacit kW": 440.25 }, "geometry": { "type": "Point", "coordinates": [ 25.885701086858791, -12.301708332583432 ] } },
{ "type": "Feature", "properties": { "OBJECTID": 61569, "Data_Numbe": "Zambia", "Codes": "<null>", "Site_Name": "Machili GS 108", "Latitude": -16.8667, "Longitude": 25.1333, "Heat_Prod_": "<null>", "Heat_Flow": 67.0, "Wh/m2/year": 587, "GWh/y 1ha": 5.87, "Elec GWh/y": 3.522, "Capacit kW": 440.25 }, "geometry": { "type": "Point", "coordinates": [ 25.1333, -16.8667 ] } },
{ "type": "Feature", "properties": { "OBJECTID": 61570, "Data_Numbe": "Zambia", "Codes": "<null>", "Site_Name": "Lumpuma LUP 7", "Latitude": -13.0833, "Longitude": 28.05, "Heat_Prod_": "2.4", "Heat_Flow": 65.0, "Wh/m2/year": 569, "GWh/y 1ha": 5.69, "Elec GWh/y": 3.414, "Capacit kW": 426.75 }, "geometry": { "type": "Point", "coordinates": [ 28.05, -13.0833 ] } },
{ "type": "Feature", "properties": { "OBJECTID": 61571, "Data_Numbe": "Zambia", "Codes": "<null>", "Site_Name": "Luanshya Mine P 38", "Latitude": -13.0833, "Longitude": 28.3167, "Heat_Prod_": "<null>", "Heat_Flow": 65.0, "Wh/m2/year": 569, "GWh/y 1ha": 5.69, "Elec GWh/y": 3.414, "Capacit kW": 426.75 }, "geometry": { "type": "Point", "coordinates": [ 28.250019817027756, -13.160359881371878 ] } },
{ "type": "Feature", "properties": { "OBJECTID": 61572, "Data_Numbe": "Zambia", "Codes": "<null>", "Site_Name": "Munali Hills MH 23", "Latitude": -15.9167, "Longitude": 28.1333, "Heat_Prod_": "0.55", "Heat_Flow": 64.0, "Wh/m2/year": 561, "GWh/y 1ha": 5.61, "Elec GWh/y": 3.366, "Capacit kW": 420.75 }, "geometry": { "type": "Point", "coordinates": [ 28.142904347434943, -15.891088406840293 ] } },
{ "type": "Feature", "properties": { "OBJECTID": 61573, "Data_Numbe": "Zambia", "Codes": "<null>", "Site_Name": "Munali Hills MH 43", "Latitude": -15.9167, "Longitude": 28.1333, "Heat_Prod_": "2.25", "Heat_Flow": 64.0, "Wh/m2/year": 561, "GWh/y 1ha": 5.61, "Elec GWh/y": 3.366, "Capacit kW": 420.75 }, "geometry": { "type": "Point", "coordinates": [ 28.117292754275301, -15.942311593159577 ] } },
{ "type": "Feature", "properties": { "OBJECTID": 61574, "Data_Numbe": "Zambia", "Codes": "<null>", "Site_Name": "Chalalobuka CH 78-42", "Latitude": -15.2167, "Longitude": 28.55, "Heat_Prod_": "<null>", "Heat_Flow": 64.0, "Wh/m2/year": 561, "GWh/y 1ha": 5.61, "Elec GWh/y": 3.366, "Capacit kW": 420.75 }, "geometry": { "type": "Point", "coordinates": [ 28.594820288029442, -15.194289855985259 ] } },
{ "type": "Feature", "properties": { "OBJECTID": 61575, "Data_Numbe": "Zambia", "Codes": "<null>", "Site_Name": "Chalalobuka CH 59-8", "Latitude": -15.2167, "Longitude": 28.55, "Heat_Prod_": "2.3", "Heat_Flow": 61.0, "Wh/m2/year": 534, "GWh/y 1ha": 5.34, "Elec GWh/y": 3.204, "Capacit kW": 400.5 }, "geometry": { "type": "Point", "coordinates": [ 28.55, -15.2167 ] } },
{ "type": "Feature", "properties": { "OBJECTID": 61576, "Data_Numbe": "Zambia", "Codes": "<null>", "Site_Name": "Mkushi COL5", "Latitude": -13.9167, "Longitude": 29.2, "Heat_Prod_": "1.9", "Heat_Flow": 61.0, "Wh/m2/year": 534, "GWh/y 1ha": 5.34, "Elec GWh/y": 3.204, "Capacit kW": 400.5 }, "geometry": { "type": "Point", "coordinates": [ 29.2, -13.9167 ] } },
{ "type": "Feature", "properties": { "OBJECTID": 61577, "Data_Numbe": "Zambia", "Codes": "<null>", "Site_Name": "Mkushi COL2", "Latitude": -13.9167, "Longitude": 29.2, "Heat_Prod_": "1.8", "Heat_Flow": 61.0, "Wh/m2/year": 534, "GWh/y 1ha": 5.34, "Elec GWh/y": 3.204, "Capacit kW": 400.5 }, "geometry": { "type": "Point", "coordinates": [ 29.2, -13.9167 ] } },
{ "type": "Feature", "properties": { "OBJECTID": 61578, "Data_Numbe": "Zambia", "Codes": "<null>", "Site_Name": "Malundwe MMB 152", "Latitude": -12.2333, "Longitude": 25.8167, "Heat_Prod_": "2.5", "Heat_Flow": 57.0, "Wh/m2/year": 499, "GWh/y 1ha": 4.99, "Elec GWh/y": 2.994, "Capacit kW": 374.25 }, "geometry": { "type": "Point", "coordinates": [ 25.828705434293607, -12.242103985148557 ] } },
{ "type": "Feature", "properties": { "OBJECTID": 61579, "Data_Numbe": "Zambia", "Codes": "<null>", "Site_Name": "Luanshya Mine DH 2231", "Latitude": -13.0833, "Longitude": 28.3167, "Heat_Prod_": "<null>", "Heat_Flow": 55.0, "Wh/m2/year": 482, "GWh/y 1ha": 4.82, "Elec GWh/y": 2.892, "Capacit kW": 361.5 }, "geometry": { "type": "Point", "coordinates": [ 28.383930432044085, -13.054486957695355 ] } },
{ "type": "Feature", "properties": { "OBJECTID": 61580, "Data_Numbe": "Zambia", "Codes": "<null>", "Site_Name": "Lubwe MMD 468", "Latitude": -12.1667, "Longitude": 25.95, "Heat_Prod_": "2.5", "Heat_Flow": 54.0, "Wh/m2/year": 473, "GWh/y 1ha": 4.73, "Elec GWh/y": 2.838, "Capacit kW": 354.75 }, "geometry": { "type": "Point", "coordinates": [ 25.954802173717479, -12.183507608010949 ] } },
{ "type": "Feature", "properties": { "OBJECTID": 61581, "Data_Numbe": "Zambia", "Codes": "<null>", "Site_Name": "Chimiwungo MM 632", "Latitude": -12.2833, "Longitude": 25.8833, "Heat_Prod_": "<null>", "Heat_Flow": 54.0, "Wh/m2/year": 473, "GWh/y 1ha": 4.73, "Elec GWh/y": 2.838, "Capacit kW": 354.75 }, "geometry": { "type": "Point", "coordinates": [ 25.840880798829421, -12.274496014851312 ] } },
{ "type": "Feature", "properties": { "OBJECTID": 61582, "Data_Numbe": "Zambia", "Codes": "<null>", "Site_Name": "Chimiwungo MM 655", "Latitude": -12.2833, "Longitude": 25.8833, "Heat_Prod_": "<null>", "Heat_Flow": 52.0, "Wh/m2/year": 456, "GWh/y 1ha": 4.56, "Elec GWh/y": 2.736, "Capacit kW": 342.0 }, "geometry": { "type": "Point", "coordinates": [ 25.888902536003748, -12.24968478397791 ] } },
{ "type": "Feature", "properties": { "OBJECTID": 61583, "Data_Numbe": "Zambia", "Codes": "<null>", "Site_Name": "Chimiwungo MMC 458", "Latitude": -12.2833, "Longitude": 25.8833, "Heat_Prod_": "2.5", "Heat_Flow": 45.0, "Wh/m2/year": 394, "GWh/y 1ha": 3.94, "Elec GWh/y": 2.364, "Capacit kW": 295.5 }, "geometry": { "type": "Point", "coordinates": [ 25.902508694869809, -12.275296377137552 ] } }
]
}
