{
"type": "FeatureCollection",
"name": "muchinga_hospitals",
"crs": { "type": "name", "properties": { "name": "urn:ogc:def:crs:OGC:1.3:CRS84" } },
"features": [
{ "type": "Feature", "properties": { "osm_id": "919228316", "code": 1500, "fclass": "building", "name": null, "type": "hospital" }, "geometry": { "type": "MultiPolygon", "coordinates": [ [ [ [ 31.370014, -11.8227893 ], [ 31.3702094, -11.822622 ], [ 31.3704284, -11.8228671 ], [ 31.3705757, -11.8227409 ], [ 31.3706816, -11.8228595 ], [ 31.3705251, -11.8229935 ], [ 31.3705974, -11.8230744 ], [ 31.3706158, -11.8230587 ], [ 31.3706401, -11.8230859 ], [ 31.3706628, -11.8230664 ], [ 31.3707412, -11.8231541 ], [ 31.3707185, -11.8231736 ], [ 31.3707435, -11.8232016 ], [ 31.3707251, -11.8232174 ], [ 31.3707979, -11.8232987 ], [ 31.3708485, -11.8232554 ], [ 31.37086, -11.8232682 ], [ 31.3708633, -11.8232654 ], [ 31.3709137, -11.8233217 ], [ 31.3709161, -11.8233196 ], [ 31.3709353, -11.8233411 ], [ 31.3708941, -11.8233764 ], [ 31.3708844, -11.8233656 ], [ 31.3708213, -11.8234197 ], [ 31.370798, -11.8233935 ], [ 31.3707303, -11.8234514 ], [ 31.3707447, -11.8234675 ], [ 31.3706694, -11.823532 ], [ 31.370595, -11.8234487 ], [ 31.3706546, -11.8233977 ], [ 31.3705924, -11.8233281 ], [ 31.3705866, -11.823333 ], [ 31.3703658, -11.8230859 ], [ 31.3703716, -11.8230809 ], [ 31.3702923, -11.8229922 ], [ 31.370218, -11.8230558 ], [ 31.3701543, -11.8229845 ], [ 31.3702978, -11.8228617 ], [ 31.3703608, -11.8229321 ], [ 31.3704096, -11.8228904 ], [ 31.370307, -11.8227756 ], [ 31.3701341, -11.8229237 ], [ 31.370014, -11.8227893 ] ] ] ] } },
{ "type": "Feature", "properties": { "osm_id": "945817421", "code": 1500, "fclass": "building", "name": null, "type": "hospital" }, "geometry": { "type": "MultiPolygon", "coordinates": [ [ [ [ 33.3625217, -10.2485242 ], [ 33.3626221, -10.2482871 ], [ 33.3632259, -10.2485346 ], [ 33.363196, -10.2486051 ], [ 33.3626643, -10.2483871 ], [ 33.3626231, -10.2484844 ], [ 33.3631495, -10.2487002 ], [ 33.3631202, -10.2487695 ], [ 33.3625217, -10.2485242 ] ] ] ] } },
{ "type": "Feature", "properties": { "osm_id": "962665850", "code": 1500, "fclass": "building", "name": null, "type": "hospital" }, "geometry": { "type": "MultiPolygon", "coordinates": [ [ [ [ 33.3594516, -10.2286392 ], [ 33.3596112, -10.2285464 ], [ 33.3596595, -10.228627 ], [ 33.3599093, -10.2284819 ], [ 33.3599827, -10.2286043 ], [ 33.3598183, -10.2286998 ], [ 33.3598765, -10.2287968 ], [ 33.3599178, -10.2287728 ], [ 33.3599417, -10.2288125 ], [ 33.3599664, -10.2287982 ], [ 33.3600155, -10.2288801 ], [ 33.3599899, -10.228895 ], [ 33.3600158, -10.2289382 ], [ 33.359977, -10.2289608 ], [ 33.3600312, -10.229051 ], [ 33.3600956, -10.2290136 ], [ 33.3601567, -10.2291155 ], [ 33.3601062, -10.2291449 ], [ 33.360098, -10.2291312 ], [ 33.3600312, -10.22917 ], [ 33.360015, -10.229143 ], [ 33.3599376, -10.229188 ], [ 33.3599474, -10.2292043 ], [ 33.3599136, -10.2292239 ], [ 33.3599196, -10.2292339 ], [ 33.3598613, -10.2292678 ], [ 33.3598043, -10.2291728 ], [ 33.3598537, -10.2291441 ], [ 33.3598737, -10.2291775 ], [ 33.3598892, -10.2291684 ], [ 33.3598244, -10.2290605 ], [ 33.35982, -10.229063 ], [ 33.3596485, -10.2287771 ], [ 33.3596608, -10.22877 ], [ 33.3596012, -10.2286706 ], [ 33.3595042, -10.2287269 ], [ 33.3594516, -10.2286392 ] ] ] ] } },
{ "type": "Feature", "properties": { "osm_id": "965646603", "code": 1500, "fclass": "building", "name": null, "type": "hospital" }, "geometry": { "type": "MultiPolygon", "coordinates": [ [ [ [ 32.7544476, -9.3280476 ], [ 32.7544523, -9.3279895 ], [ 32.7545634, -9.3279984 ], [ 32.7545542, -9.3281116 ], [ 32.7544926, -9.3281067 ], [ 32.7544971, -9.3280515 ], [ 32.7544476, -9.3280476 ] ] ] ] } },
{ "type": "Feature", "properties": { "osm_id": "965646604", "code": 1500, "fclass": "building", "name": null, "type": "hospital" }, "geometry": { "type": "MultiPolygon", "coordinates": [ [ [ [ 32.7542801, -9.3283731 ], [ 32.7542828, -9.3283479 ], [ 32.7543754, -9.3283572 ], [ 32.7543861, -9.3282537 ], [ 32.7545145, -9.3282667 ], [ 32.754488, -9.3285225 ], [ 32.7543533, -9.328509 ], [ 32.7543665, -9.3283817 ], [ 32.7542801, -9.3283731 ] ] ] ] } },
{ "type": "Feature", "properties": { "osm_id": "966123894", "code": 1500, "fclass": "building", "name": null, "type": "hospital" }, "geometry": { "type": "MultiPolygon", "coordinates": [ [ [ [ 32.7539927, -9.3285036 ], [ 32.7540186, -9.3282978 ], [ 32.7541198, -9.3283102 ], [ 32.7541129, -9.3283655 ], [ 32.7542851, -9.3283866 ], [ 32.7542724, -9.328487 ], [ 32.7540327, -9.3284577 ], [ 32.7540264, -9.3285078 ], [ 32.7539927, -9.3285036 ] ] ] ] } },
{ "type": "Feature", "properties": { "osm_id": "966123895", "code": 1500, "fclass": "building", "name": null, "type": "hospital" }, "geometry": { "type": "MultiPolygon", "coordinates": [ [ [ [ 32.7540934, -9.3279452 ], [ 32.7541096, -9.3277979 ], [ 32.7543561, -9.3278242 ], [ 32.7543391, -9.3279779 ], [ 32.7542717, -9.3279706 ], [ 32.7542746, -9.3279446 ], [ 32.7541605, -9.3279323 ], [ 32.7541583, -9.3279522 ], [ 32.7540934, -9.3279452 ] ] ] ] } },
{ "type": "Feature", "properties": { "osm_id": "1327232393", "code": 1500, "fclass": "building", "name": null, "type": "hospital" }, "geometry": { "type": "MultiPolygon", "coordinates": [ [ [ [ 33.4662531, -10.5847264 ], [ 33.4662927, -10.5845249 ], [ 33.4663904, -10.5845441 ], [ 33.4664445, -10.5842688 ], [ 33.4666125, -10.5843018 ], [ 33.4665741, -10.5844974 ], [ 33.46667, -10.5845162 ], [ 33.466679, -10.5844706 ], [ 33.4668574, -10.5845057 ], [ 33.4668426, -10.5845809 ], [ 33.4669537, -10.5846028 ], [ 33.4669715, -10.5845122 ], [ 33.4670762, -10.5845327 ], [ 33.4670125, -10.5848564 ], [ 33.4668872, -10.5848318 ], [ 33.4669042, -10.5847452 ], [ 33.4663917, -10.5846445 ], [ 33.4663711, -10.5847496 ], [ 33.4662531, -10.5847264 ] ] ] ] } },
{ "type": "Feature", "properties": { "osm_id": "18212033", "code": 1500, "fclass": "building", "name": null, "type": "hospital" }, "geometry": { "type": "MultiPolygon", "coordinates": [ [ [ [ 31.5083546, -10.8631537 ], [ 31.5083903, -10.8629765 ], [ 31.5084483, -10.8629882 ], [ 31.5084629, -10.8629158 ], [ 31.5086125, -10.8629459 ], [ 31.508595, -10.8630327 ], [ 31.5086609, -10.863046 ], [ 31.5086268, -10.8632153 ], [ 31.5085529, -10.8632004 ], [ 31.5085433, -10.8632483 ], [ 31.5084027, -10.8632199 ], [ 31.5084136, -10.8631656 ], [ 31.5083546, -10.8631537 ] ], [ [ 31.5084442, -10.8631188 ], [ 31.5085824, -10.8631419 ], [ 31.5085945, -10.8630693 ], [ 31.5084564, -10.8630462 ], [ 31.5084442, -10.8631188 ] ] ] ] } },
{ "type": "Feature", "properties": { "osm_id": "18212043", "code": 1500, "fclass": "building", "name": null, "type": "hospital" }, "geometry": { "type": "MultiPolygon", "coordinates": [ [ [ [ 31.8267761, -11.2083033 ], [ 31.8268542, -11.208155 ], [ 31.8268865, -11.208172 ], [ 31.8269228, -11.208103 ], [ 31.8270494, -11.2081697 ], [ 31.8270131, -11.2082387 ], [ 31.8270898, -11.2082791 ], [ 31.8270087, -11.2084331 ], [ 31.8269448, -11.2083995 ], [ 31.8269172, -11.2084521 ], [ 31.8267941, -11.2083872 ], [ 31.8268248, -11.208329 ], [ 31.8267761, -11.2083033 ] ], [ [ 31.8268631, -11.208292 ], [ 31.8269728, -11.2083452 ], [ 31.8269988, -11.2082916 ], [ 31.826889, -11.2082384 ], [ 31.8268631, -11.208292 ] ] ] ] } }
]
}
